GLOBALSTAR M067         
1 32263U 07048A   25240.21482852 -.00000049  00000+0  35623-3 0  9995
2 32263  51.9713 185.1720 0001077 114.8020  34.0566 12.40676389818422
GLOBALSTAR M070         
1 32264U 07048B   25240.10414315 -.00000078  00000+0  14142-3 0  9998
2 32264  51.9738 269.4172 0000130 120.9488 272.0725 12.62321873822753
GLOBALSTAR M066         
1 32265U 07048C   25240.32191198 -.00000053  00000+0  35155-3 0  9994
2 32265  51.9547 178.6383 0004442 146.4125  23.5531 12.30374231824171
GLOBALSTAR M068         
1 32266U 07048D   25240.56908961 -.00000052  00000+0  28630-3 0  9994
2 32266  51.9879  81.6113 0000681 350.3290  56.5675 12.62827556826708
GLOBALSTAR M079         
1 37188U 10054A   25240.32267507 -.00000092  00000+0  65420-4 0  9994
2 37188  52.0032 280.1976 0000630 104.0651 358.6906 12.62266384685567
GLOBALSTAR M074         
1 37189U 10054B   25240.17747964 -.00000092  00000+0  63731-4 0  9991
2 37189  52.0011 279.9526 0000439 130.5594 270.7951 12.62271057686152
GLOBALSTAR M076         
1 37190U 10054C   25240.46260701 -.00000085  00000+0  10628-3 0  9992
2 37190  52.0022 279.2614 0000642 122.5608  15.3837 12.62265005685904
GLOBALSTAR M077         
1 37191U 10054D   25240.20253106 -.00000115  00000+0 -63154-4 0  9994
2 37191  52.0048 236.9178 0000255  91.9955  10.6346 12.62323042686249
